*******************************************************************************
 Revised: April 12, 2021                 Earth                              399
 
 GEOPHYSICAL PROPERTIES (revised Aug 15, 2018):
  Vol. Mean Radius (km)    = 6371.01+-0.02   Mass x10^24 (kg)= 5.97219+-0.0006
  Equ. radius, km          = 6378.137        Mass layers:
  Polar axis, km           = 6356.752          Atmos         = 5.1   x 10^18 kg
  Flattening               = 1/298.257223563   oceans        = 1.4   x 10^21 kg
  Density, g/cm^3          = 5.51              crust         = 2.6   x 10^22 kg
  J2 (IERS 2010)           = 0.00108262545     mantle        = 4.043 x 10^24 kg
  g_p, m/s^2  (polar)      = 9.8321863685      outer core    = 1.835 x 10^24 kg
  g_e, m/s^2  (equatorial) = 9.7803267715      inner core    = 9.675 x 10^22 kg
  g_o, m/s^2               = 9.82022         Fluid core rad  = 3480 km
  GM, km^3/s^2             = 398600.435436   Inner core rad  = 1215 km
  GM 1-sigma, km^3/s^2     =      0.0014     Escape velocity = 11.186 km/s
  Rot. Rate (rad/s)        = 0.00007292115   Surface area:
  Mean sidereal day, hr    = 23.9344695944     land          = 1.48 x 10^8 km
  Mean solar day 2000.0, s = 86400.002         sea           = 3.62 x 10^8 km
  Mean solar day 1820.0, s = 86400.0         Love no., k2    = 0.299
  Moment of inertia        = 0.3308          Atm. pressure   = 1.0 bar
  Mean temperature, K      = 270             Volume, km^3    = 1.08321 x 10^12
  Mean effect. IR temp, K  = 255             Magnetic moment = 0.61 gauss Rp^3
  Geometric albedo         = 0.367           Vis. mag. V(1,0)= -3.86
  Solar Constant (W/m^2)   = 1367.6 (mean), 1414 (perihelion), 1322 (aphelion)
 HELIOCENTRIC ORBIT CHARACTERISTICS:
  Obliquity to orbit, deg  = 23.4392911  Sidereal orb period  = 1.0000174 y
  Orbital speed, km/s      = 29.79       Sidereal orb period  = 365.25636 d
  Mean daily motion, deg/d = 0.9856474   Hill's sphere radius = 234.9       
*******************************************************************************


*******************************************************************************
Ephemeris / WWW_USER Wed Dec  1 19:46:22 2021 Pasadena, USA      / Horizons
*******************************************************************************
Target body name: Earth (399)                     {source: DE441}
Center body name: Sun (10)                        {source: DE441}
Center-site name: BODY CENTER
*******************************************************************************
Start time      : A.D. 2031-May-19 00:00:00.0000 TDB
Stop  time      : A.D. 2032-Feb-24 00:00:00.0000 TDB
Step-size       : 1440 minutes
*******************************************************************************
Center geodetic : 0.00000000,0.00000000,0.0000000 {E-lon(deg),Lat(deg),Alt(km)}
Center cylindric: 0.00000000,0.00000000,0.0000000 {E-lon(deg),Dxy(km),Dz(km)}
Center radii    : 696000.0 x 696000.0 x 696000.0 k{Equator, meridian, pole}    
Output units    : AU-D
Output type     : GEOMETRIC cartesian states
Output format   : 3 (position, velocity, LT, range, range-rate)
Reference frame : Ecliptic of J2000.0
*******************************************************************************
            JDTDB,            Calendar Date (TDB),                      X,                      Y,                      Z,                     VX,                     VY,                     VZ,                     LT,                     RG,                     RR,
**************************************************************************************************************************************************************************************************************************************************************************
$$SOE
2463235.500000000, A.D. 2032-Jan-04 00:00:00.0000, -2.164409827994913E-01,  9.591304314210090E-01, -6.548978324315139E-05, -1.706230834673091E-02, -3.845779349338437E-03,  2.878027281171124E-08,  5.678770543917246E-03,  9.832486398678476E-01,  4.453379187174321E-06,
2463236.500000000, A.D. 2032-Jan-05 00:00:00.0000, -2.334694795983496E-01,  9.551356362069530E-01, -6.550427440763185E-05, -1.699381006175085E-02, -4.143656774097859E-03, -5.496695906718080E-08,  5.678812242521505E-03,  9.832558597573650E-01,  9.948322059268596E-06,
2463237.500000000, A.D. 2032-Jan-06 00:00:00.0000, -2.504268461175740E-01,  9.508434393661649E-01, -6.559324245084044E-05, -1.692004110892776E-02, -4.440569488963839E-03, -1.192858958649824E-07,  5.678884989943266E-03,  9.832684555829838E-01,  1.520050114201574E-05,
2463238.500000000, A.D. 2032-Jan-07 00:00:00.0000, -2.673077902980667E-01,  9.462548462957705E-01, -6.573458172019871E-05, -1.684095729324218E-02, -4.736434624182967E-03, -1.588130619675722E-07,  5.678987303114102E-03,  9.832861705593660E-01,  2.018219547690758E-05,
2463239.500000000, A.D. 2032-Jan-08 00:00:00.0000, -2.841069714483058E-01,  9.413709506274961E-01, -6.590083948313026E-05, -1.675650541559595E-02, -5.031157615016530E-03, -1.682703170090879E-07,  5.679117547882444E-03,  9.833087217419383E-01,  2.486949360426503E-05,
2463240.500000000, A.D. 2032-Jan-09 00:00:00.0000, -3.008189913135833E-01,  9.361929492232769E-01, -6.605951349548268E-05, -1.666662395539679E-02, -5.324625224640546E-03, -1.429469257391781E-07,  5.679273975603735E-03,  9.833358063622814E-01,  2.924781499595771E-05,
2463241.500000000, A.D. 2032-Jan-10 00:00:00.0000, -3.174383878140282E-01,  9.307221650416678E-01, -6.617401416576933E-05, -1.657124809725372E-02, -5.616697078242583E-03, -7.955193850383149E-08,  5.679454799430345E-03,  9.833671150373187E-01,  3.332002847825925E-05,
2463242.500000000, A.D. 2032-Jan-11 00:00:00.0000, -3.339596367950759E-01,  9.249600781225320E-01, -6.620564847754196E-05, -1.647032092320869E-02, -5.907198541404188E-03,  2.262262820221699E-08,  5.679658321704494E-03,  9.834023538267168E-01,  3.711559915512859E-05,
2463243.500000000, A.D. 2032-Jan-12 00:00:00.0000, -3.503771680787067E-01,  9.189083611171180E-01, -6.611680561513255E-05, -1.636381048436128E-02, -6.195919618239063E-03,  1.605372178079983E-07,  5.679883108834195E-03,  9.834412745117189E-01,  4.069711623946197E-05,
2463244.500000000, A.D. 2032-Jan-13 00:00:00.0000, -3.666853999376374E-01,  9.125689109031999E-01, -6.587508101687488E-05, -1.625172849484735E-02, -6.482624449861619E-03,  3.267970539902052E-07,  5.680128184554176E-03,  9.834837080572325E-01,  4.415935609582683E-05,
2463245.500000000, A.D. 2032-Jan-14 00:00:00.0000, -3.828787898544505E-01,  9.059438648522363E-01, -6.545748881319225E-05, -1.613414275893944E-02, -6.767072100489619E-03,  5.101504237365563E-07,  5.680393187897733E-03,  9.835295919638098E-01,  4.761785453114276E-05,
2463246.500000000, A.D. 2032-Jan-15 00:00:00.0000, -3.989518913493647E-01,  8.990355928716423E-01, -6.485355327575970E-05, -1.601117604772400E-02, -7.049042710790004E-03,  6.971918485992676E-07,  5.680678438711495E-03,  9.835789816111791E-01,  5.118920800510884E-05,
2463247.500000000, A.D. 2032-Jan-16 00:00:00.0000, -4.148994021458345E-01,  8.918466648603871E-01, -6.406631026041119E-05, -1.588299044358158E-02, -7.328358786380761E-03,  8.746960809886146E-07,  5.680984882852110E-03,  9.836320407693411E-01,  5.497059725216408E-05,
2463248.500000000, A.D. 2032-Jan-17 00:00:00.0000, -4.307161920012972E-01,  8.843798028565838E-01, -6.311104633839564E-05, -1.574976390799666E-02, -7.604893759902023E-03,  1.031659408667339E-06,  5.681313937109863E-03,  9.836890147479297E-01,  5.902660827227988E-05,
2463249.500000000, A.D. 2032-Jan-18 00:00:00.0000, -4.463973073012999E-01,  8.766378315427733E-01, -6.201244013928711E-05, -1.561166871652118E-02, -7.878567250578162E-03,  1.160392434889465E-06,  5.681667288713292E-03,  9.837501956815103E-01,  6.338671711499161E-05,
2463250.500000000, A.D. 2032-Jan-19 00:00:00.0000, -4.619379578763181E-01,  8.686236379833573E-01, -6.080113437378017E-05, -1.546885803823883E-02, -8.149332506814305E-03,  1.256601884645109E-06,  5.682046706487337E-03,  9.838158898326269E-01,  6.805111398049318E-05,
2463251.500000000, A.D. 2032-Jan-20 00:00:00.0000, -4.773334949689889E-01,  8.603401449876488E-01, -5.951058701419071E-05, -1.532146138527996E-02, -8.417162675644439E-03,  1.318827834725400E-06,  5.682453897964825E-03,  9.838863928514248E-01,  7.299996865202756E-05,
2463252.500000000, A.D. 2032-Jan-21 00:00:00.0000, -4.925793879719540E-01,  8.517902969131327E-01, -5.817461926471560E-05, -1.516958610488638E-02, -8.682040073366560E-03,  1.347677586344773E-06,  5.682890419672368E-03,  9.839619742421319E-01,  7.820207593571852E-05,
2463253.500000000, A.D. 2032-Jan-22 00:00:00.0000, -5.076712042084787E-01,  8.429770541241901E-01, -5.682570118184373E-05, -1.501332145585237E-02, -8.943949592745288E-03,  1.345149022733533E-06,  5.683357630477985E-03,  9.840428692854519E-01,  8.362097715784141E-05,
2463254.500000000, A.D. 2032-Jan-23 00:00:00.0000, -5.226045930066779E-01,  8.339033922400321E-01, -5.549381655686679E-05, -1.485274282543736E-02, -9.202875514253439E-03,  1.314154987363789E-06,  5.683856672341045E-03,  9.841292757055204E-01,  8.921839727962090E-05,
2463255.500000000, A.D. 2032-Jan-24 00:00:00.0000, -5.373752735336728E-01,  8.245723034207501E-01, -5.420570329691031E-05, -1.468791493173702E-02, -9.458800395745065E-03,  1.258240528643358E-06,  5.684388464715353E-03,  9.842213527008290E-01,  9.495567811510870E-05,
2463256.500000000, A.D. 2032-Jan-25 00:00:00.0000, -5.519790252049551E-01,  8.149867982334387E-01, -5.298430402883153E-05, -1.451889378750758E-02, -9.711704855468113E-03,  1.181433820481242E-06,  5.684953703516746E-03,  9.843192207654693E-01,  1.007940611603743E-04,
2463257.500000000, A.D. 2032-Jan-26 00:00:00.0000, -5.664116795397653E-01,  8.051499076347413E-01, -5.184832690066524E-05, -1.434572769550119E-02, -9.961567460611399E-03,  1.088164645953736E-06,  5.685552860157201E-03,  9.844229615218955E-01,  1.066945257336866E-04,
